{
    "links": {
        "self": "http://www.neowsapp.com/rest/v1/neo/3836863?api_key=iIulBulltgU6a56xZRHN4H3l9WmuAYTsLGpBGhQ2"
    },
    "id": "3836863",
    "neo_reference_id": "3836863",
    "name": "(2018 XF3)",
    "designation": "2018 XF3",
    "nasa_jpl_url": "http://ssd.jpl.nasa.gov/sbdb.cgi?sstr=3836863",
    "absolute_magnitude_h": 22.0,
    "estimated_diameter": {
        "kilometers": {
            "estimated_diameter_min": 0.1058168859,
            "estimated_diameter_max": 0.2366137501
        },
        "meters": {
            "estimated_diameter_min": 105.8168859331,
            "estimated_diameter_max": 236.6137501138
        },
        "miles": {
            "estimated_diameter_min": 0.0657515442,
            "estimated_diameter_max": 0.1470249225
        },
        "feet": {
            "estimated_diameter_min": 347.1682720448,
            "estimated_diameter_max": 776.2918559233
        }
    },
    "is_potentially_hazardous_asteroid": false,
    "close_approach_data": [
        {
            "close_approach_date": "2018-12-22",
            "close_approach_date_full": "2018-Dec-22 22:50",
            "epoch_date_close_approach": 1545519000000,
            "relative_velocity": {
                "kilometers_per_second": "15.3064010877",
                "kilometers_per_hour": "55103.0439158705",
                "miles_per_hour": "34238.8885931696"
            },
            "miss_distance": {
                "astronomical": "0.3116377859",
                "lunar": "121.2270987151",
                "kilometers": "46620348.982156033",
                "miles": "28968541.5683899354"
            },
            "orbiting_body": "Earth"
        },
        {
            "close_approach_date": "2038-12-19",
            "close_approach_date_full": "2038-Dec-19 07:00",
            "epoch_date_close_approach": 2176354800000,
            "relative_velocity": {
                "kilometers_per_second": "16.4335620084",
                "kilometers_per_hour": "59160.823230407",
                "miles_per_hour": "36760.2348566938"
            },
            "miss_distance": {
                "astronomical": "0.393024346",
                "lunar": "152.886470594",
                "kilometers": "58795605.01974302",
                "miles": "36533894.860052876"
            },
            "orbiting_body": "Earth"
        }
    ],
    "orbital_data": {
        "orbit_id": "3",
        "orbit_determination_date": "2019-01-12 06:54:37",
        "first_observation_date": "2018-12-09",
        "last_observation_date": "2019-01-11",
        "data_arc_in_days": 33,
        "observations_used": 32,
        "orbit_uncertainty": "7",
        "minimum_orbit_intersection": ".307937",
        "jupiter_tisserand_invariant": "4.011",
        "epoch_osculation": "2459000.5",
        "eccentricity": ".256779764845415",
        "semi_major_axis": "1.706247135121749",
        "inclination": "29.71833915127775",
        "ascending_node_longitude": "274.9644447942604",
        "orbital_period": "814.0692111663525",
        "perihelion_distance": "1.268117396997023",
        "perihelion_argument": "152.8387913708252",
        "aphelion_distance": "2.144376873246474",
        "perihelion_time": "2459257.022732950267",
        "mean_anomaly": "246.5597880433473",
        "mean_motion": ".4422228418198157",
        "equinox": "J2000",
        "orbit_class": {
            "orbit_class_type": "AMO",
            "orbit_class_description": "Near-Earth asteroid orbits similar to that of 1221 Amor",
            "orbit_class_range": "1.017 AU < q (perihelion) < 1.3 AU"
        }
    },
    "is_sentry_object": false
}